{
  "type": "FeatureCollection",
  "features": [
    {
      "type": "Feature",
      "properties": {
        "norad_id": 56759,
        "name": "NVS-01 (IRNSS-1J)",
        "group": "gnss",
        "lat": 1.796844409841737,
        "lon": -64.31653226206903,
        "alt_km": 35752.4243337047,
        "timestamp": "2025-12-27T04:40:45.749684+00:00",
        "meta_object_name": "NVS-01 (IRNSS-1J)",
        "meta_object_id": "2023-076A",
        "meta_epoch": "2025-12-26T22:12:35.823168",
        "meta_mean_motion": 1.00269875,
        "meta_eccentricity": 0.00089907,
        "meta_inclination": 2.5851,
        "meta_ra_of_asc_node": 251.0972,
        "meta_arg_of_pericenter": 17.8566,
        "meta_mean_anomaly": 289.4164,
        "meta_ephemeris_type": 0,
        "meta_classification_type": "U",
        "meta_norad_cat_id": 56759,
        "meta_element_set_no": 999,
        "meta_rev_at_epoch": 938,
        "meta_bstar": 0,
        "meta_mean_motion_dot": -3.12e-06,
        "meta_mean_motion_ddot": 0,
        "tle_line1": "1 56759U 23076A   25360.92541462 -.00000312  00000+0  00000+0 0  9994",
        "tle_line2": "2 56759   2.5851 251.0972 0008990  17.8566 289.4164  1.00269875  9382"
      },
      "geometry": {
        "type": "Point",
        "coordinates": [
          -64.31653226206903,
          1.796844409841737
        ]
      }
    },
    {
      "type": "Feature",
      "properties": {
        "norad_id": 57517,
        "name": "COSMOS 2569 (703K)",
        "group": "gnss",
        "lat": 50.53787520112574,
        "lon": -135.67620819153117,
        "alt_km": 19151.16834546591,
        "timestamp": "2025-12-27T04:40:45.749696+00:00",
        "meta_object_name": "COSMOS 2569 (703K)",
        "meta_object_id": "2023-114A",
        "meta_epoch": "2025-12-26T02:20:34.905408",
        "meta_mean_motion": 2.13103952,
        "meta_eccentricity": 0.00110098,
        "meta_inclination": 65.2009,
        "meta_ra_of_asc_node": 78.4621,
        "meta_arg_of_pericenter": 287.2132,
        "meta_mean_anomaly": 72.7147,
        "meta_ephemeris_type": 0,
        "meta_classification_type": "U",
        "meta_norad_cat_id": 57517,
        "meta_element_set_no": 999,
        "meta_rev_at_epoch": 1857,
        "meta_bstar": 0,
        "meta_mean_motion_dot": -5e-08,
        "meta_mean_motion_ddot": 0,
        "tle_line1": "1 57517U 23114A   25360.09762622 -.00000005  00000+0  00000+0 0  9990",
        "tle_line2": "2 57517  65.2009  78.4621 0011009 287.2132  72.7147  2.13103952 18578"
      },
      "geometry": {
        "type": "Point",
        "coordinates": [
          -135.67620819153117,
          50.53787520112574
        ]
      }
    },
    {
      "type": "Feature",
      "properties": {
        "norad_id": 58654,
        "name": "BEIDOU-3 M28 (C50)",
        "group": "gnss",
        "lat": 5.22468431811524,
        "lon": -115.46106175752374,
        "alt_km": 21529.6327034963,
        "timestamp": "2025-12-27T04:40:45.749706+00:00",
        "meta_object_name": "BEIDOU-3 M28 (C50)",
        "meta_object_id": "2023-207A",
        "meta_epoch": "2025-12-26T09:34:30.666720",
        "meta_mean_motion": 1.86229622,
        "meta_eccentricity": 0.0002968,
        "meta_inclination": 55.596,
        "meta_ra_of_asc_node": 68.1388,
        "meta_arg_of_pericenter": 276.5456,
        "meta_mean_anomaly": 83.472,
        "meta_ephemeris_type": 0,
        "meta_classification_type": "U",
        "meta_norad_cat_id": 58654,
        "meta_element_set_no": 999,
        "meta_rev_at_epoch": 1362,
        "meta_bstar": 0,
        "meta_mean_motion_dot": -3.3e-07,
        "meta_mean_motion_ddot": 0,
        "tle_line1": "1 58654U 23207A   25360.39896605 -.00000033  00000+0  00000+0 0  9999",
        "tle_line2": "2 58654  55.5960  68.1388 0002968 276.5456  83.4720  1.86229622 13628"
      },
      "geometry": {
        "type": "Point",
        "coordinates": [
          -115.46106175752374,
          5.22468431811524
        ]
      }
    },
    {
      "type": "Feature",
      "properties": {
        "norad_id": 58655,
        "name": "BEIDOU-3 M26 (C48)",
        "group": "gnss",
        "lat": -39.60068138959716,
        "lon": 33.6287592101798,
        "alt_km": 21524.715790677463,
        "timestamp": "2025-12-27T04:40:45.749718+00:00",
        "meta_object_name": "BEIDOU-3 M26 (C48)",
        "meta_object_id": "2023-207B",
        "meta_epoch": "2025-12-26T17:36:09.851904",
        "meta_mean_motion": 1.86231163,
        "meta_eccentricity": 0.00042763,
        "meta_inclination": 55.5984,
        "meta_ra_of_asc_node": 68.1137,
        "meta_arg_of_pericenter": 261.988,
        "meta_mean_anomaly": 98.0139,
        "meta_ephemeris_type": 0,
        "meta_classification_type": "U",
        "meta_norad_cat_id": 58655,
        "meta_element_set_no": 999,
        "meta_rev_at_epoch": 1361,
        "meta_bstar": 0,
        "meta_mean_motion_dot": -3.4e-07,
        "meta_mean_motion_ddot": 0,
        "tle_line1": "1 58655U 23207B   25360.73344736 -.00000034  00000+0  00000+0 0  9992",
        "tle_line2": "2 58655  55.5984  68.1137 0004276 261.9880  98.0139  1.86231163 13618"
      },
      "geometry": {
        "type": "Point",
        "coordinates": [
          33.6287592101798,
          -39.60068138959716
        ]
      }
    },
    {
      "type": "Feature",
      "properties": {
        "norad_id": 59598,
        "name": "GSAT0225 (GALILEO 29)",
        "group": "gnss",
        "lat": 24.420447011413827,
        "lon": -92.62743035183611,
        "alt_km": 23214.31588114667,
        "timestamp": "2025-12-27T04:40:45.749729+00:00",
        "meta_object_name": "GSAT0225 (GALILEO 29)",
        "meta_object_id": "2024-079A",
        "meta_epoch": "2025-12-25T18:42:53.226144",
        "meta_mean_motion": 1.70474814,
        "meta_eccentricity": 0.00021774,
        "meta_inclination": 55.0084,
        "meta_ra_of_asc_node": 105.9312,
        "meta_arg_of_pericenter": 191.4017,
        "meta_mean_anomaly": 169.7242,
        "meta_ephemeris_type": 0,
        "meta_classification_type": "U",
        "meta_norad_cat_id": 59598,
        "meta_element_set_no": 999,
        "meta_rev_at_epoch": 1036,
        "meta_bstar": 0,
        "meta_mean_motion_dot": 1.7e-07,
        "meta_mean_motion_ddot": 0,
        "tle_line1": "1 59598U 24079A   25359.77978271  .00000017  00000+0  00000+0 0  9996",
        "tle_line2": "2 59598  55.0084 105.9312 0002177 191.4017 169.7242  1.70474814 10368"
      },
      "geometry": {
        "type": "Point",
        "coordinates": [
          -92.62743035183611,
          24.420447011413827
        ]
      }
    },
    {
      "type": "Feature",
      "properties": {
        "norad_id": 59600,
        "name": "GSAT0227 (GALILEO 30)",
        "group": "gnss",
        "lat": 29.621022620973974,
        "lon": 129.32745984075424,
        "alt_km": 23217.057028265608,
        "timestamp": "2025-12-27T04:40:45.749740+00:00",
        "meta_object_name": "GSAT0227 (GALILEO 30)",
        "meta_object_id": "2024-079C",
        "meta_epoch": "2025-12-21T20:31:35.455872",
        "meta_mean_motion": 1.70474868,
        "meta_eccentricity": 0.00028355,
        "meta_inclination": 55.0019,
        "meta_ra_of_asc_node": 106.0394,
        "meta_arg_of_pericenter": 117.3615,
        "meta_mean_anomaly": 242.6419,
        "meta_ephemeris_type": 0,
        "meta_classification_type": "U",
        "meta_norad_cat_id": 59600,
        "meta_element_set_no": 999,
        "meta_rev_at_epoch": 1034,
        "meta_bstar": 0,
        "meta_mean_motion_dot": 4e-08,
        "meta_mean_motion_ddot": 0,
        "tle_line1": "1 59600U 24079C   25355.85527148  .00000004  00000+0  00000+0 0  9994",
        "tle_line2": "2 59600  55.0019 106.0394 0002835 117.3615 242.6419  1.70474868 10348"
      },
      "geometry": {
        "type": "Point",
        "coordinates": [
          129.32745984075424,
          29.621022620973974
        ]
      }
    },
    {
      "type": "Feature",
      "properties": {
        "norad_id": 61182,
        "name": "GSAT0232 (GALILEO 32)",
        "group": "gnss",
        "lat": -40.043193720959835,
        "lon": 81.74207469293387,
        "alt_km": 23222.131233943303,
        "timestamp": "2025-12-27T04:40:45.749751+00:00",
        "meta_object_name": "GSAT0232 (GALILEO 32)",
        "meta_object_id": "2024-167A",
        "meta_epoch": "2025-12-24T18:25:47.943264",
        "meta_mean_motion": 1.70473505,
        "meta_eccentricity": 0.0001887,
        "meta_inclination": 55.2374,
        "meta_ra_of_asc_node": 226.1008,
        "meta_arg_of_pericenter": 202.1814,
        "meta_mean_anomaly": 339.8736,
        "meta_ephemeris_type": 0,
        "meta_classification_type": "U",
        "meta_norad_cat_id": 61182,
        "meta_element_set_no": 999,
        "meta_rev_at_epoch": 790,
        "meta_bstar": 0,
        "meta_mean_motion_dot": 7.1e-07,
        "meta_mean_motion_ddot": 0,
        "tle_line1": "1 61182U 24167A   25358.76791601  .00000071  00000+0  00000+0 0  9994",
        "tle_line2": "2 61182  55.2374 226.1008 0001887 202.1814 339.8736  1.70473505  7904"
      },
      "geometry": {
        "type": "Point",
        "coordinates": [
          81.74207469293387,
          -40.043193720959835
        ]
      }
    }
  ]
}